{
  "type": "FeatureCollection",
  "features": [
    {
      "type": "Feature",
      "properties": {
        "norad_id": 34141,
        "name": "COSMOS 2251 DEB",
        "group": "cosmos-2251-debris",
        "lat": -53.34802342891061,
        "lon": -2.355029147911702,
        "alt_km": 766.2060520128798,
        "timestamp": "2025-12-17T07:00:47.303176+00:00",
        "meta_object_name": "COSMOS 2251 DEB",
        "meta_object_id": "1993-036LN",
        "meta_epoch": "2025-12-16T11:58:04.503072",
        "meta_mean_motion": 14.49281466,
        "meta_eccentricity": 0.0046857,
        "meta_inclination": 74.0114,
        "meta_ra_of_asc_node": 21.7996,
        "meta_arg_of_pericenter": 106.8145,
        "meta_mean_anomaly": 18.2411,
        "meta_ephemeris_type": 0,
        "meta_classification_type": "U",
        "meta_norad_cat_id": 34141,
        "meta_element_set_no": 999,
        "meta_rev_at_epoch": 87748,
        "meta_bstar": 0.00095146147,
        "meta_mean_motion_dot": 3.654e-05,
        "meta_mean_motion_ddot": 0,
        "tle_line1": "1 34141U 93036LN  25350.49866323  .00003654  00000+0  95146-3 0  9995",
        "tle_line2": "2 34141  74.0114  21.7996 0046857 106.8145  18.2411 14.49281466877487"
      },
      "geometry": {
        "type": "Point",
        "coordinates": [
          -2.355029147911702,
          -53.34802342891061
        ]
      }
    },
    {
      "type": "Feature",
      "properties": {
        "norad_id": 34270,
        "name": "COSMOS 2251 DEB",
        "group": "cosmos-2251-debris",
        "lat": 17.81950611114984,
        "lon": 112.56573768906883,
        "alt_km": 665.9418516412416,
        "timestamp": "2025-12-17T07:00:47.303186+00:00",
        "meta_object_name": "COSMOS 2251 DEB",
        "meta_object_id": "1993-036LQ",
        "meta_epoch": "2025-12-16T23:43:46.206336",
        "meta_mean_motion": 14.65204283,
        "meta_eccentricity": 0.00478407,
        "meta_inclination": 74.0114,
        "meta_ra_of_asc_node": 298.4384,
        "meta_arg_of_pericenter": 89.9161,
        "meta_mean_anomaly": 270.7489,
        "meta_ephemeris_type": 0,
        "meta_classification_type": "U",
        "meta_norad_cat_id": 34270,
        "meta_element_set_no": 999,
        "meta_rev_at_epoch": 89158,
        "meta_bstar": 0.00058779064,
        "meta_mean_motion_dot": 3.187e-05,
        "meta_mean_motion_ddot": 0,
        "tle_line1": "1 34270U 93036LQ  25350.98872924  .00003187  00000+0  58779-3 0  9998",
        "tle_line2": "2 34270  74.0114 298.4384 0047840  89.9161 270.7489 14.65204283891583"
      },
      "geometry": {
        "type": "Point",
        "coordinates": [
          112.56573768906883,
          17.81950611114984
        ]
      }
    },
    {
      "type": "Feature",
      "properties": {
        "norad_id": 34271,
        "name": "COSMOS 2251 DEB",
        "group": "cosmos-2251-debris",
        "lat": -18.07379183476722,
        "lon": 15.847979307607899,
        "alt_km": 653.7789653083219,
        "timestamp": "2025-12-17T07:00:47.303197+00:00",
        "meta_object_name": "COSMOS 2251 DEB",
        "meta_object_id": "1993-036LR",
        "meta_epoch": "2025-12-17T00:16:05.831904",
        "meta_mean_motion": 14.70853178,
        "meta_eccentricity": 0.00186347,
        "meta_inclination": 74.0196,
        "meta_ra_of_asc_node": 191.0278,
        "meta_arg_of_pericenter": 244.7074,
        "meta_mean_anomaly": 266.6692,
        "meta_ephemeris_type": 0,
        "meta_classification_type": "U",
        "meta_norad_cat_id": 34271,
        "meta_element_set_no": 999,
        "meta_rev_at_epoch": 88297,
        "meta_bstar": 0.00147912,
        "meta_mean_motion_dot": 9.049e-05,
        "meta_mean_motion_ddot": 0,
        "tle_line1": "1 34271U 93036LR  25351.01117861  .00009049  00000+0  14791-2 0  9994",
        "tle_line2": "2 34271  74.0196 191.0278 0018634 244.7074 266.6692 14.70853178882979"
      },
      "geometry": {
        "type": "Point",
        "coordinates": [
          15.847979307607899,
          -18.07379183476722
        ]
      }
    },
    {
      "type": "Feature",
      "properties": {
        "norad_id": 34273,
        "name": "COSMOS 2251 DEB",
        "group": "cosmos-2251-debris",
        "lat": 57.7805197622866,
        "lon": 105.73794690688118,
        "alt_km": 691.0051318793612,
        "timestamp": "2025-12-17T07:00:47.303207+00:00",
        "meta_object_name": "COSMOS 2251 DEB",
        "meta_object_id": "1993-036LT",
        "meta_epoch": "2025-12-16T12:44:52.367424",
        "meta_mean_motion": 14.61262854,
        "meta_eccentricity": 0.00139195,
        "meta_inclination": 74.0364,
        "meta_ra_of_asc_node": 80.1783,
        "meta_arg_of_pericenter": 206.1759,
        "meta_mean_anomaly": 173.7014,
        "meta_ephemeris_type": 0,
        "meta_classification_type": "U",
        "meta_norad_cat_id": 34273,
        "meta_element_set_no": 999,
        "meta_rev_at_epoch": 88677,
        "meta_bstar": 0.00066406803,
        "meta_mean_motion_dot": 3.252e-05,
        "meta_mean_motion_ddot": 0,
        "tle_line1": "1 34273U 93036LT  25350.53116166  .00003252  00000+0  66407-3 0  9991",
        "tle_line2": "2 34273  74.0364  80.1783 0013919 206.1759 173.7014 14.61262854886773"
      },
      "geometry": {
        "type": "Point",
        "coordinates": [
          105.73794690688118,
          57.7805197622866
        ]
      }
    },
    {
      "type": "Feature",
      "properties": {
        "norad_id": 34274,
        "name": "COSMOS 2251 DEB",
        "group": "cosmos-2251-debris",
        "lat": -21.530992982338887,
        "lon": -113.70487223870448,
        "alt_km": 667.2732513881156,
        "timestamp": "2025-12-17T07:00:47.303217+00:00",
        "meta_object_name": "COSMOS 2251 DEB",
        "meta_object_id": "1993-036LU",
        "meta_epoch": "2025-12-16T15:55:31.589184",
        "meta_mean_motion": 14.64831758,
        "meta_eccentricity": 0.00218468,
        "meta_inclination": 74.0049,
        "meta_ra_of_asc_node": 61.0077,
        "meta_arg_of_pericenter": 210.8677,
        "meta_mean_anomaly": 277.7157,
        "meta_ephemeris_type": 0,
        "meta_classification_type": "U",
        "meta_norad_cat_id": 34274,
        "meta_element_set_no": 999,
        "meta_rev_at_epoch": 88733,
        "meta_bstar": 0.00079119153,
        "meta_mean_motion_dot": 4.21e-05,
        "meta_mean_motion_ddot": 0,
        "tle_line1": "1 34274U 93036LU  25350.66356006  .00004210  00000+0  79119-3 0  9994",
        "tle_line2": "2 34274  74.0049  61.0077 0021846 210.8677 277.7157 14.64831758887331"
      },
      "geometry": {
        "type": "Point",
        "coordinates": [
          -113.70487223870448,
          -21.530992982338887
        ]
      }
    },
    {
      "type": "Feature",
      "properties": {
        "norad_id": 34276,
        "name": "COSMOS 2251 DEB",
        "group": "cosmos-2251-debris",
        "lat": 15.39528030398556,
        "lon": 81.19017251841777,
        "alt_km": 716.652543799124,
        "timestamp": "2025-12-17T07:00:47.303228+00:00",
        "meta_object_name": "COSMOS 2251 DEB",
        "meta_object_id": "1993-036LW",
        "meta_epoch": "2025-12-16T23:30:46.282176",
        "meta_mean_motion": 14.57258294,
        "meta_eccentricity": 0.00224592,
        "meta_inclination": 74.0243,
        "meta_ra_of_asc_node": 77.2597,
        "meta_arg_of_pericenter": 223.6299,
        "meta_mean_anomaly": 313.5867,
        "meta_ephemeris_type": 0,
        "meta_classification_type": "U",
        "meta_norad_cat_id": 34276,
        "meta_element_set_no": 999,
        "meta_rev_at_epoch": 88654,
        "meta_bstar": 0.00056813898,
        "meta_mean_motion_dot": 2.549e-05,
        "meta_mean_motion_ddot": 0,
        "tle_line1": "1 34276U 93036LW  25350.97970234  .00002549  00000+0  56814-3 0  9995",
        "tle_line2": "2 34276  74.0243  77.2597 0022459 223.6299 313.5867 14.57258294886547"
      },
      "geometry": {
        "type": "Point",
        "coordinates": [
          81.19017251841777,
          15.39528030398556
        ]
      }
    },
    {
      "type": "Feature",
      "properties": {
        "norad_id": 34297,
        "name": "COSMOS 2251 DEB",
        "group": "cosmos-2251-debris",
        "lat": 48.13202126638887,
        "lon": -65.51698915289694,
        "alt_km": 760.1235487446056,
        "timestamp": "2025-12-17T07:00:47.303239+00:00",
        "meta_object_name": "COSMOS 2251 DEB",
        "meta_object_id": "1993-036MT",
        "meta_epoch": "2025-12-16T22:47:30.457248",
        "meta_mean_motion": 14.36633083,
        "meta_eccentricity": 0.00174491,
        "meta_inclination": 74.0487,
        "meta_ra_of_asc_node": 276.5019,
        "meta_arg_of_pericenter": 344.3635,
        "meta_mean_anomaly": 95.3381,
        "meta_ephemeris_type": 0,
        "meta_classification_type": "U",
        "meta_norad_cat_id": 34297,
        "meta_element_set_no": 999,
        "meta_rev_at_epoch": 88125,
        "meta_bstar": 0.00012154763,
        "meta_mean_motion_dot": 3.32e-06,
        "meta_mean_motion_ddot": 0,
        "tle_line1": "1 34297U 93036MT  25350.94965807  .00000332  00000+0  12155-3 0  9993",
        "tle_line2": "2 34297  74.0487 276.5019 0017449 344.3635  95.3381 14.36633083881250"
      },
      "geometry": {
        "type": "Point",
        "coordinates": [
          -65.51698915289694,
          48.13202126638887
        ]
      }
    }
  ]
}